{
  "norad_id": 65518,
  "name": "STARLINK-35232",
  "history": [
    {
      "epoch": "2026-03-28T16:43:27.711264",
      "apogee_km": 475.9284969595283,
      "perigee_km": 474.4262504488124,
      "latitude_deg": -28.42236656065505,
      "longitude_deg": 78.69745695986785,
      "semi_major_axis_km": 6853.31437370417,
      "eccentricity": 0.0001096,
      "inclination_deg": 53.1584,
      "raan_deg": 182.4587,
      "arg_perigee_deg": 82.9059,
      "mean_anomaly_deg": 277.2066,
      "mean_motion_rev_day": 15.30212625
    }
  ]
}